[{"OBJECT_NAME":"GAOFEN-9 02","OBJECT_ID":"2020-034B","EPOCH":"2026-03-10T00:01:23.433024","MEAN_MOTION":15.24736529,"ECCENTRICITY":0.00138652,"INCLINATION":97.5615,"RA_OF_ASC_NODE":225.1997,"ARG_OF_PERICENTER":60.5372,"MEAN_ANOMALY":299.7247,"EPHEMERIS_TYPE":0,"CLASSIFICATION_TYPE":"U","NORAD_CAT_ID":45625,"ELEMENT_SET_NO":999,"REV_AT_EPOCH":32104,"BSTAR":0.00036092627,"MEAN_MOTION_DOT":8.888e-5,"MEAN_MOTION_DDOT":0},{"OBJECT_NAME":"STARLINK-31052","OBJECT_ID":"2023-200M","EPOCH":"2026-03-09T08:20:36.658464","MEAN_MOTION":15.26746351,"ECCENTRICITY":0.00015874,"INCLINATION":43.0019,"RA_OF_ASC_NODE":170.3452,"ARG_OF_PERICENTER":237.1277,"MEAN_ANOMALY":122.9422,"EPHEMERIS_TYPE":0,"CLASSIFICATION_TYPE":"U","NORAD_CAT_ID":58600,"ELEMENT_SET_NO":999,"REV_AT_EPOCH":12356,"BSTAR":0.00017619186,"MEAN_MOTION_DOT":4.47e-5,"MEAN_MOTION_DDOT":0}]
